NOAA 2 (ITOS-D)
1 06235U 72082A   25096.93794461 -.00000009  00000-0  23848-3 0  9998
2 06235 102.0244 105.3933 0003663 282.2196 141.6142 12.53198305400306
SOLRAD-7B
1 01291U 65016D   25096.92114527  .00000113  00000-0  12279-3 0  9993
2 01291  70.0772  83.7228 0022309 327.3455  32.6270 13.94900026 55861
OSCAR-7 (AO-7)
1 07530U 74089B   25096.95943403 -.00000011  00000-0  22459-3 0  9990
2 07530 101.9952 100.5426 0011897 242.7537 145.6424 12.53688016305855
UOSAT-2 (UO-11)
1 14781U 84021B   25096.90656151  .00003726  00000-0  40065-3 0  9997
2 14781  97.7478  64.5700 0007788 174.4517 185.6788 14.89101747192160
FLTSATCOM-7 (USA-20)
1 17181U 86096A   25096.12865532  .00000014  00000-0  00000+0 0  9995
2 17181  13.0575 342.8512 0041015 321.1346 161.8923  0.98927371147599
FLTSATCOM-8 (USA-46)
1 20253U 89077A   25096.56216074 -.00000378  00000-0  00000-0 0  9995
2 20253  12.5457 353.7789 0006574   4.9185 164.6358  1.00272780256181
OSCAR 16 (PACSAT)
1 20439U 90005D   25096.96422525  .00000401  00000-0  16104-3 0  9999
2 20439  98.8940 116.3404 0011689  73.2520 348.2957 14.33734665839427
LUSAT (LO-19)
1 20442U 90005G   25096.95891088  .00000446  00000-0  17652-3 0  9994
2 20442  98.9002 101.3315 0012433  49.0873 311.1385 14.33916737839871
UFO 2 (USA 95)
1 22787U 93056A   25097.02552661  .00000114  00000-0  00000+0 0  9994
2 22787  11.7482   5.8699 0004679  12.5526 214.9532  1.00271160114285
EYESAT-1 (AO-27)
1 22825U 93061C   25097.20956822  .00000322  00000-0  14027-3 0  9999
2 22825  98.7429 158.4312 0007367 302.5011  57.5459 14.30769252644928
ITAMSAT (IO-26) 
1 22826U 93061D   25096.89703370  .00000338  00000-0  14520-3 0  9997
2 22826  98.7377 157.9955 0007787 285.4285  74.6037 14.31178787644904
UFO 3 (USA 104)
1 23132U 94035A   25096.89975270  .00000107  00000-0  00000-0 0  9999
2 23132  12.1741   8.2718 0002538 302.2979 236.6878  1.00194883127324
RADIO ROSTO (RS-15)
1 23439U 94085A   25096.94246124 -.00000017  00000-0  71451-3 0  9991
2 23439  64.8152 288.7194 0145821  86.7636 274.9959 11.27581325246715
UFO 4 (USA 108)
1 23467U 95003A   25096.64463626 -.00000034  00000-0  00000-0 0  9996
2 23467   9.7080  14.5926 0002141   0.1859 224.7094  1.00272508110573
UFO 7 (USA 127)
1 23967U 96042A   25095.14003138 -.00000254  00000-0  00000-0 0  9991
2 23967  10.6970  19.3174 0005341  91.4523 100.5897  1.00307952105096
JAS-2 (FO-29)
1 24278U 96046B   25096.72454312  .00000037  00000-0  70937-4 0  9998
2 24278  98.5823 359.0056 0350479 147.8868 214.4154 13.53242707414136
UFO 8 (USA 138)
1 25258U 98016A   25096.86225450 -.00000055  00000-0  00000-0 0  9991
2 25258  10.6042  25.2491 0005654 260.2963 286.0423  1.00397540 99482
TECHSAT-1B (GO-32)
1 25397U 98043D   25096.90567830  .00000273  00000-0  13818-3 0  9996
2 25397  98.9657  74.7134 0002123  58.4580 301.6805 14.24290269389222
ISS (ZARYA)
1 25544U 98067A   25097.06905128  .00012809  00000-0  23764-3 0  9999
2 25544  51.6365 299.2598 0005005  16.5600 343.5551 15.49310379504131
UFO 10 (USA 146)
1 25967U 99063A   25096.10419388 -.00000200  00000-0  00000-0 0  9995
2 25967   9.6888  29.3858 0003201 291.6398 248.2174  1.00273549 92964
PCSAT (NO-44)
1 26931U 01043C   25096.93610801  .00000477  00000-0  20987-3 0  9996
2 26931  67.0501 292.3880 0005562 269.2986  90.7478 14.31686408228158
PROBA-1
1 26958U 01049B   25097.20152605  .00004509  00000-0  31247-3 0  9996
2 26958  97.9451  86.6893 0058738 153.3732 207.0531 15.04769427278057
SAUDISAT-1C (SO-50)
1 27607U 02058C   25096.96614519  .00004310  00000-0  55704-3 0  9992
2 27607  64.5555  36.8615 0048822 349.2805  10.7254 14.81355650199802
CUTE-1 (CO-55)
1 27844U 03031E   25096.94840904  .00000869  00000-0  39801-3 0  9999
2 27844  98.6787 106.0383 0009966  19.7091 340.4471 14.23923564129587
CUBESAT XI-IV (CO-57)
1 27848U 03031J   25097.00788571  .00000715  00000-0  33504-3 0  9996
2 27848  98.6815 106.1503 0010183  35.6532 324.5325 14.23268433129373
MOZHAYETS-4 (RS-22)
1 27939U 03042A   25097.21370003  .00003198  00000-0  51615-3 0  9990
2 27939  98.3223 265.1606 0011129 205.4660 328.7593 14.72108558151502
UFO 11 (USA 174)
1 28117U 03057A   25096.87043398 -.00000115  00000-0  00000-0 0  9996
2 28117   8.5371  35.7494 0002908 320.5625 227.9471  1.00272046 78075
CUBESAT XI-V (CO-58)
1 28895U 05043F   25096.84481645  .00004578  00000-0  75865-3 0  9994
2 28895  98.2381 240.4459 0015525 146.4047 213.8146 14.70671630 37579
CAPE-1
1 31130U 07012P   25096.92282083  .00005045  00000-0  94092-3 0  9995
2 31130  98.3912  56.8353 0086029 353.4342   6.5724 14.63082544954516
CUTE-1.7+APD II (CO-65)
1 32785U 08021C   25096.87041390  .00012159  00000-0  89491-3 0  9992
2 32785  97.7782  67.6213 0011598  70.3755 289.8720 15.03466023919503
SEEDS-II (CO-66)
1 32791U 08021J   25096.68927877  .00023559  00000-0  12078-2 0  9993
2 32791  97.7241  75.4124 0006002  54.7053 305.4739 15.16548344920800
YUBILEINY (RS-30)
1 32953U 08025A   25097.14534328  .00000068  00000-0  41713-3 0  9993
2 32953  82.4981 266.6332 0019590 181.6912 178.4105 12.43161763765655
PRISM (HITOMI)
1 33493U 09002B   25097.20490290  .00900945  33824-3  30070-2 0  9994
2 33493  98.1404 184.6846 0011247 268.0195  91.9788 15.90134992884266
KKS-1 (KISEKI)
1 33499U 09002H   25096.83324518  .00004094  00000-0  53107-3 0  9991
2 33499  98.1225   8.0374 0006605 262.6745  97.3716 14.81326824871556
SWISSCUBE
1 35932U 09051B   25097.15397049  .00002942  00000-0  60796-3 0  9996
2 35932  98.4370 352.1885 0008003 121.7066 238.4915 14.61108294825497
BEESAT
1 35933U 09051C   25096.96650415  .00002438  00000-0  51178-3 0  9998
2 35933  98.4301 352.4633 0006229 131.8422 228.3311 14.60555985825481
ITUPSAT-1
1 35935U 09051E   25097.13699224  .00002294  00000-0  49479-3 0  9992
2 35935  98.4395 352.2291 0008279 141.8982 218.2804 14.59369848825140
PROBA-2
1 36037U 09059B   25096.73649312  .00000664  00000-0  16622-3 0  9995
2 36037  98.2375 281.4407 0013153 183.3272 176.7839 14.54501837818073
XIWANG-1 (HOPE-1)
1 36122U 09072B   25097.15817045 -.00000003  00000-0  10854-3 0  9991
2 36122 100.3426  54.2912 0007787 146.1577 214.0035 13.16422326735735
EWS-G2 (GOES-15)
1 36411U 10008A   25097.19200321  .00000022  00000-0  00000+0 0  9998
2 36411   0.1476  86.6042 0002724 196.3070  43.2103  1.00273350 55253
TISAT-1
1 36799U 10035E   25097.21826328  .00023053  00000-0  12496-2 0  9995
2 36799  98.0621   7.4096 0002473 358.6900   1.4324 15.14595672801575
HORYU-2
1 38340U 12025D   25096.86630582  .00008836  00000-0  99211-3 0  9998
2 38340  98.1701 209.6850 0009655 161.2056 198.9518 14.86976762683792
AAUSAT-3
1 39087U 13009B   25096.95255535  .00001877  00000-0  62022-3 0  9999
2 39087  98.3682 286.0296 0012801  83.6461 276.6185 14.39081932634736
STRAND-1
1 39090U 13009E   25097.09418476  .00000866  00000-0  30796-3 0  9994
2 39090  98.3828 283.4565 0009937  94.6229 265.6093 14.36746023634453
CUBEBUG-1 (CAPITAN BETO)
1 39153U 13018D   25096.91817486  .00009298  00000-0  89770-3 0  9992
2 39153  98.1075 235.3683 0013684 146.8720 213.3358 14.93012890645954
PROBA-V
1 39159U 13021A   25096.98299914  .00000239  00000-0  12324-3 0  9996
2 39159  98.3199  93.2920 0003747 347.9428  12.1661 14.23464031619057
ZACUBE-1 (TSHEPISOSAT)
1 39417U 13066B   25096.85611761  .00008841  00000-0  78210-3 0  9999
2 39417  97.7735  54.2669 0042900 265.0634  94.5688 14.95825888615388
TRITON-1
1 39427U 13066M   25097.20706568  .00005069  00000-0  65031-3 0  9996
2 39427  97.8385  12.6033 0094327 211.2512 148.3072 14.78563067609783
DELFI-N3XT
1 39428U 13066N   25097.20937971  .00011262  00000-0  11751-2 0  9992
2 39428  97.8354  15.6210 0085450 208.0559 151.6038 14.87203857609835
GOMX-1
1 39430U 13066Q   25097.14292936  .00004428  00000-0  69315-3 0  9999
2 39430  97.6929 319.6825 0134141  36.0002 325.0147 14.67301614606100
HUMSAT-D
1 39433U 13066T   25096.92963735  .00049322  00000-0  16682-2 0  9999
2 39433  97.5044  91.8604 0010953   1.7380 358.3897 15.30402477619325
VELOX-PII
1 39438U 13066Y   25096.82814755  .00007875  00000-0  81139-3 0  9997
2 39438  97.8237  45.4437 0056641 348.0287  11.9580 14.89323392612801
CUBEBUG-2 (LO-74)
1 39440U 13066AA  25096.79760340  .00010503  00000-0  10751-2 0  9999
2 39440  97.8442  41.8488 0064285  32.1536 328.3577 14.89148673611941
FUNCUBE-1 (AO-73)
1 39444U 13066AE  25096.84957322  .00014635  00000-0  11292-2 0  9998
2 39444  97.7667  58.6158 0039618 240.8904 118.8351 15.01053993614021
UWE-3
1 39446U 13066AG  25096.85012381  .00010557  00000-0  10145-2 0  9993
2 39446  97.8174  48.1806 0053164 332.4491  27.3912 14.92145922612402
UNISAT-6
1 40012U 14033C   25096.93904859  .00006758  00000-0  78753-3 0  9996
2 40012  97.7338 254.9535 0049156  64.9408 295.6898 14.84671796581357
DUCHIFAT-1
1 40021U 14033M   25096.89749969  .00037013  00000-0  14761-2 0  9996
2 40021  98.1006 105.8488 0010353 162.9899 197.1686 15.25048596588603
FUNCUBE-3 (EO-79)
1 40025U 14033R   25096.92281144  .00015452  00000-0  97607-3 0  9994
2 40025  98.0801  76.0514 0008160 271.3575  88.6717 15.09136121587036
SMAP
1 40376U 15003A   25096.97702511  .00001389  00000-0  27759-3 0  9997
2 40376  98.1303 105.2183 0001665  87.9863 272.1530 14.63412340543825
LILACSAT-2
1 40908U 15049K   25097.17801067  .00019466  00000-0  53818-3 0  9997
2 40908  97.5124 116.0550 0010494  39.8263 320.3749 15.37017321528483
LAPAN-A2 (IO-86)
1 40931U 15052B   25038.81889873  .00001817  00000-0  15548-3 0  9993
2 40931   6.0001 108.1159 0012838 187.7041 172.2889 14.78568669506492
LQSAT
1 40958U 15057A   25097.20902297  .00001652  00000-0  24689-3 0  9994
2 40958  97.6584 107.9063 0015832 245.4148 114.5413 14.75928619510962
PRATHAM
1 41783U 16059A   25096.91327125  .00001907  00000-0  35175-3 0  9997
2 41783  97.8270 108.5410 0032222 164.8621 195.3555 14.66250178455564
ALSAT-1N
1 41789U 16059G   25097.11216539  .00002464  00000-0  43394-3 0  9993
2 41789  97.8096 115.1625 0027567 139.1631 221.1647 14.68167903455992
